STARLINK-35473          
1 65937U 25225AD  25299.71806774  .00160285  00000+0  10764-2 0  9994
2 65937  53.1596  71.7292 0001146  78.5428 281.5721 15.74223401  2956
2025-226A               
1 65938U 25226A   25299.83084332  .00010923  00000+0  64289-3 0  9992
2 65938  97.6664  14.0067 0014497 227.2859 132.7151 15.11724654  2388
2025-226B               
1 65939U 25226B   25299.84679802  .00006023  00000+0  37674-3 0  9990
2 65939  97.6621  13.9781 0020494 230.5182 129.4235 15.09628283  2376
2025-226C               
1 65940U 25226C   25299.83200330  .00010708  00000+0  63233-3 0  9992
2 65940  97.6572  13.9886 0014444 225.1268 134.8790 15.11612635  2375
YOTSUBA-KULOVER         
1 65941U 98067XN  25299.24441333  .00050829  00000+0  81754-3 0  9997
2 65941  51.6333  17.3832 0002410 309.1858  50.8918 15.52475324  2464
BOTAN                   
1 65942U 98067XP  25299.24137569  .00066958  00000+0  10490-2 0  9999
2 65942  51.6336  17.3634 0004234 332.8150  27.2618 15.53081115  2469
E-KAGAKU-1              
1 65943U 98067XQ  25299.24402476  .00049616  00000+0  79771-3 0  9992
2 65943  51.6335  17.3807 0004121 323.1871  36.8835 15.52492087  2469
2025-226D               
1 65944U 25226D   25290.94606692 -.00000071  00000+0  00000+0 0  9992
2 65944  97.6632   5.1263 0019022 287.2735  72.6416 15.16526485  1020
SHIYAN-31               
1 65945U 25227A   25299.75700288  .00009762  00000+0  44874-3 0  9994
2 65945  80.0034  84.2762 0011320 223.8724 136.1604 15.20217879  2038
CZ-2D R/B               
1 65946U 25227B   25299.76163622  .00012063  00000+0  44745-3 0  9996
2 65946  80.1541  84.5297 0021501 351.5304   8.5561 15.27279796  2042
KUIPER-00101            
1 65947U 25228A   25299.71307620  .00040975  00000+0  12084-2 0  9994
2 65947  51.8800 247.1086 0006335 179.2406 180.8590 15.34585424  3194
KUIPER-00113            
1 65948U 25228B   25299.71096231  .00044816  00000+0  13095-2 0  9999
2 65948  51.8806 247.0991 0006348 177.1860 182.9163 15.34836727  3194
