CCSDS_OMM_VERS = 2.0
CREATION_DATE  = 
ORIGINATOR     = 

OBJECT_NAME    = STARLINK-35473
OBJECT_ID      = 2025-225AD
CENTER_NAME    = EARTH
REF_FRAME      = TEME
TIME_SYSTEM    = UTC
MEAN_ELEMENT_THEORY = SGP/SGP4

EPOCH          = 2025-10-26T17:14:01.052736
MEAN_MOTION    = 15.74223401
ECCENTRICITY   = .0001146
INCLINATION    = 53.1596
RA_OF_ASC_NODE = 71.7292
ARG_OF_PERICENTER = 78.5428
MEAN_ANOMALY   = 281.5721

EPHEMERIS_TYPE = 0
CLASSIFICATION_TYPE = U
NORAD_CAT_ID   = 65937
ELEMENT_SET_NO = 999
REV_AT_EPOCH   = 295
BSTAR          = .10764E-2
MEAN_MOTION_DOT = .160285E-2
MEAN_MOTION_DDOT = 0

CCSDS_OMM_VERS = 2.0
CREATION_DATE  = 
ORIGINATOR     = 

OBJECT_NAME    = 2025-226A
OBJECT_ID      = 2025-226A
CENTER_NAME    = EARTH
REF_FRAME      = TEME
TIME_SYSTEM    = UTC
MEAN_ELEMENT_THEORY = SGP/SGP4

EPOCH          = 2025-10-26T19:56:24.862848
MEAN_MOTION    = 15.11724654
ECCENTRICITY   = .0014497
INCLINATION    = 97.6664
RA_OF_ASC_NODE = 14.0067
ARG_OF_PERICENTER = 227.2859
MEAN_ANOMALY   = 132.7151

EPHEMERIS_TYPE = 0
CLASSIFICATION_TYPE = U
NORAD_CAT_ID   = 65938
ELEMENT_SET_NO = 999
REV_AT_EPOCH   = 238
BSTAR          = .64289E-3
MEAN_MOTION_DOT = .10923E-3
MEAN_MOTION_DDOT = 0

CCSDS_OMM_VERS = 2.0
CREATION_DATE  = 
ORIGINATOR     = 

OBJECT_NAME    = 2025-226B
OBJECT_ID      = 2025-226B
CENTER_NAME    = EARTH
REF_FRAME      = TEME
TIME_SYSTEM    = UTC
MEAN_ELEMENT_THEORY = SGP/SGP4

EPOCH          = 2025-10-26T20:19:23.348928
MEAN_MOTION    = 15.09628283
ECCENTRICITY   = .0020494
INCLINATION    = 97.6621
RA_OF_ASC_NODE = 13.9781
ARG_OF_PERICENTER = 230.5182
MEAN_ANOMALY   = 129.4235

EPHEMERIS_TYPE = 0
CLASSIFICATION_TYPE = U
NORAD_CAT_ID   = 65939
ELEMENT_SET_NO = 999
REV_AT_EPOCH   = 237
BSTAR          = .37674E-3
MEAN_MOTION_DOT = .6023E-4
MEAN_MOTION_DDOT = 0

CCSDS_OMM_VERS = 2.0
CREATION_DATE  = 
ORIGINATOR     = 

OBJECT_NAME    = 2025-226C
OBJECT_ID      = 2025-226C
CENTER_NAME    = EARTH
REF_FRAME      = TEME
TIME_SYSTEM    = UTC
MEAN_ELEMENT_THEORY = SGP/SGP4

EPOCH          = 2025-10-26T19:58:05.085120
MEAN_MOTION    = 15.11612635
ECCENTRICITY   = .0014444
INCLINATION    = 97.6572
RA_OF_ASC_NODE = 13.9886
ARG_OF_PERICENTER = 225.1268
MEAN_ANOMALY   = 134.8790

EPHEMERIS_TYPE = 0
CLASSIFICATION_TYPE = U
NORAD_CAT_ID   = 65940
ELEMENT_SET_NO = 999
REV_AT_EPOCH   = 237
BSTAR          = .63233E-3
MEAN_MOTION_DOT = .10708E-3
MEAN_MOTION_DDOT = 0

CCSDS_OMM_VERS = 2.0
CREATION_DATE  = 
ORIGINATOR     = 

OBJECT_NAME    = YOTSUBA-KULOVER
OBJECT_ID      = 1998-067XN
CENTER_NAME    = EARTH
REF_FRAME      = TEME
TIME_SYSTEM    = UTC
MEAN_ELEMENT_THEORY = SGP/SGP4

EPOCH          = 2025-10-26T05:51:57.311712
MEAN_MOTION    = 15.52475324
ECCENTRICITY   = .00024107
INCLINATION    = 51.6333
RA_OF_ASC_NODE = 17.3832
ARG_OF_PERICENTER = 309.1858
MEAN_ANOMALY   = 50.8918

EPHEMERIS_TYPE = 0
CLASSIFICATION_TYPE = U
NORAD_CAT_ID   = 65941
ELEMENT_SET_NO = 999
REV_AT_EPOCH   = 246
BSTAR          = .81754297E-3
MEAN_MOTION_DOT = .50829E-3
MEAN_MOTION_DDOT = 0

CCSDS_OMM_VERS = 2.0
CREATION_DATE  = 
ORIGINATOR     = 

OBJECT_NAME    = BOTAN
OBJECT_ID      = 1998-067XP
CENTER_NAME    = EARTH
REF_FRAME      = TEME
TIME_SYSTEM    = UTC
MEAN_ELEMENT_THEORY = SGP/SGP4

EPOCH          = 2025-10-26T05:47:34.859616
MEAN_MOTION    = 15.53081115
ECCENTRICITY   = .00042344
INCLINATION    = 51.6336
RA_OF_ASC_NODE = 17.3634
ARG_OF_PERICENTER = 332.8150
MEAN_ANOMALY   = 27.2618

EPHEMERIS_TYPE = 0
CLASSIFICATION_TYPE = U
NORAD_CAT_ID   = 65942
ELEMENT_SET_NO = 999
REV_AT_EPOCH   = 246
BSTAR          = .10490386E-2
MEAN_MOTION_DOT = .66958E-3
MEAN_MOTION_DDOT = 0

CCSDS_OMM_VERS = 2.0
CREATION_DATE  = 
ORIGINATOR     = 

OBJECT_NAME    = E-KAGAKU-1
OBJECT_ID      = 1998-067XQ
CENTER_NAME    = EARTH
REF_FRAME      = TEME
TIME_SYSTEM    = UTC
MEAN_ELEMENT_THEORY = SGP/SGP4

EPOCH          = 2025-10-26T05:51:23.739264
MEAN_MOTION    = 15.52492087
ECCENTRICITY   = .00041214
INCLINATION    = 51.6335
RA_OF_ASC_NODE = 17.3807
ARG_OF_PERICENTER = 323.1871
MEAN_ANOMALY   = 36.8835

EPHEMERIS_TYPE = 0
CLASSIFICATION_TYPE = U
NORAD_CAT_ID   = 65943
ELEMENT_SET_NO = 999
REV_AT_EPOCH   = 246
BSTAR          = .79770735E-3
MEAN_MOTION_DOT = .49616E-3
MEAN_MOTION_DDOT = 0

CCSDS_OMM_VERS = 2.0
CREATION_DATE  = 
ORIGINATOR     = 

OBJECT_NAME    = 2025-226D
OBJECT_ID      = 2025-226D
CENTER_NAME    = EARTH
REF_FRAME      = TEME
TIME_SYSTEM    = UTC
MEAN_ELEMENT_THEORY = SGP/SGP4

EPOCH          = 2025-10-17T22:42:20.181888
MEAN_MOTION    = 15.16526485
ECCENTRICITY   = .0019022
INCLINATION    = 97.6632
RA_OF_ASC_NODE = 5.1263
ARG_OF_PERICENTER = 287.2735
MEAN_ANOMALY   = 72.6416

EPHEMERIS_TYPE = 0
CLASSIFICATION_TYPE = U
NORAD_CAT_ID   = 65944
ELEMENT_SET_NO = 999
REV_AT_EPOCH   = 102
BSTAR          = 0
MEAN_MOTION_DOT = -.71E-6
MEAN_MOTION_DDOT = 0

CCSDS_OMM_VERS = 2.0
CREATION_DATE  = 
ORIGINATOR     = 

OBJECT_NAME    = SHIYAN-31
OBJECT_ID      = 2025-227A
CENTER_NAME    = EARTH
REF_FRAME      = TEME
TIME_SYSTEM    = UTC
MEAN_ELEMENT_THEORY = SGP/SGP4

EPOCH          = 2025-10-26T18:10:05.048832
MEAN_MOTION    = 15.20217879
ECCENTRICITY   = .001132
INCLINATION    = 80.0034
RA_OF_ASC_NODE = 84.2762
ARG_OF_PERICENTER = 223.8724
MEAN_ANOMALY   = 136.1604

EPHEMERIS_TYPE = 0
CLASSIFICATION_TYPE = U
NORAD_CAT_ID   = 65945
ELEMENT_SET_NO = 999
REV_AT_EPOCH   = 203
BSTAR          = .44874E-3
MEAN_MOTION_DOT = .9762E-4
MEAN_MOTION_DDOT = 0

CCSDS_OMM_VERS = 2.0
CREATION_DATE  = 
ORIGINATOR     = 

OBJECT_NAME    = CZ-2D R/B
OBJECT_ID      = 2025-227B
CENTER_NAME    = EARTH
REF_FRAME      = TEME
TIME_SYSTEM    = UTC
MEAN_ELEMENT_THEORY = SGP/SGP4

EPOCH          = 2025-10-26T18:16:45.369408
MEAN_MOTION    = 15.27279796
ECCENTRICITY   = .0021501
INCLINATION    = 80.1541
RA_OF_ASC_NODE = 84.5297
ARG_OF_PERICENTER = 351.5304
MEAN_ANOMALY   = 8.5561

EPHEMERIS_TYPE = 0
CLASSIFICATION_TYPE = U
NORAD_CAT_ID   = 65946
ELEMENT_SET_NO = 999
REV_AT_EPOCH   = 204
BSTAR          = .44745E-3
MEAN_MOTION_DOT = .12063E-3
MEAN_MOTION_DDOT = 0

CCSDS_OMM_VERS = 2.0
CREATION_DATE  = 
ORIGINATOR     = 

OBJECT_NAME    = KUIPER-00101
OBJECT_ID      = 2025-228A
CENTER_NAME    = EARTH
REF_FRAME      = TEME
TIME_SYSTEM    = UTC
MEAN_ELEMENT_THEORY = SGP/SGP4

EPOCH          = 2025-10-26T17:06:49.783680
MEAN_MOTION    = 15.34585424
ECCENTRICITY   = .0006335
INCLINATION    = 51.8800
RA_OF_ASC_NODE = 247.1086
ARG_OF_PERICENTER = 179.2406
MEAN_ANOMALY   = 180.8590

EPHEMERIS_TYPE = 0
CLASSIFICATION_TYPE = U
NORAD_CAT_ID   = 65947
ELEMENT_SET_NO = 999
REV_AT_EPOCH   = 319
BSTAR          = .12084E-2
MEAN_MOTION_DOT = .40975E-3
MEAN_MOTION_DDOT = 0

CCSDS_OMM_VERS = 2.0
CREATION_DATE  = 
ORIGINATOR     = 

OBJECT_NAME    = KUIPER-00113
OBJECT_ID      = 2025-228B
CENTER_NAME    = EARTH
REF_FRAME      = TEME
TIME_SYSTEM    = UTC
MEAN_ELEMENT_THEORY = SGP/SGP4

EPOCH          = 2025-10-26T17:03:47.143584
MEAN_MOTION    = 15.34836727
ECCENTRICITY   = .0006348
INCLINATION    = 51.8806
RA_OF_ASC_NODE = 247.0991
ARG_OF_PERICENTER = 177.1860
MEAN_ANOMALY   = 182.9163

EPHEMERIS_TYPE = 0
CLASSIFICATION_TYPE = U
NORAD_CAT_ID   = 65948
ELEMENT_SET_NO = 999
REV_AT_EPOCH   = 319
BSTAR          = .13095E-2
MEAN_MOTION_DOT = .44816E-3
MEAN_MOTION_DDOT = 0

